{"type": "FeatureCollection", "features": [ {"type": "Feature", "properties": {"norad_id": 66907, "name": "1998-067XT", "group": "last-30-days", "lat": -37.445947719795626, "lon": 122.40896424825947, "alt_km": 419.1625950108746, "timestamp": "2025-12-09T05:43:19.510920+00:00", "meta": {"OBJECT_NAME": "1998-067XT", "OBJECT_ID": "1998-067XT", "EPOCH": "2025-12-08T19:06:53.693856", "MEAN_MOTION": 15.50762002, "ECCENTRICITY": 0.0004972, "INCLINATION": 51.6302, "RA_OF_ASC_NODE": 161.9586, "ARG_OF_PERICENTER": 204.3216, "MEAN_ANOMALY": 155.7539, "EPHEMERIS_TYPE": 0, "CLASSIFICATION_TYPE": "U", "NORAD_CAT_ID": 66907, "ELEMENT_SET_NO": 999, "REV_AT_EPOCH": 100, "BSTAR": 0.0012614, "MEAN_MOTION_DOT": 0.00074227, "MEAN_MOTION_DDOT": 0}, "tle": {"line1": "1 66907U 98067XT  25342.79645479  .00074227  00000+0  12614-2 0  9992", "line2": "2 66907  51.6302 161.9586 0004972 204.3216 155.7539 15.50762002  1007"}}, "geometry": {"type": "Point", "coordinates": [122.40896424825947, -37.445947719795626]}}, {"type": "Feature", "properties": {"norad_id": 66908, "name": "1998-067XU", "group": "last-30-days", "lat": -36.76486757738789, "lon": 123.46588304809424, "alt_km": 419.19514606942266, "timestamp": "2025-12-09T05:43:19.510930+00:00", "meta": {"OBJECT_NAME": "1998-067XU", "OBJECT_ID": "1998-067XU", "EPOCH": "2025-12-08T19:06:37.819584", "MEAN_MOTION": 15.50799834, "ECCENTRICITY": 0.0005158, "INCLINATION": 51.6297, "RA_OF_ASC_NODE": 161.9574, "ARG_OF_PERICENTER": 203.0343, "MEAN_ANOMALY": 157.0415, "EPHEMERIS_TYPE": 0, "CLASSIFICATION_TYPE": "U", "NORAD_CAT_ID": 66908, "ELEMENT_SET_NO": 999, "REV_AT_EPOCH": 100, "BSTAR": 0.0012102, "MEAN_MOTION_DOT": 0.00071266, "MEAN_MOTION_DDOT": 0}, "tle": {"line1": "1 66908U 98067XU  25342.79627106  .00071266  00000+0  12102-2 0  9992", "line2": "2 66908  51.6297 161.9574 0005158 203.0343 157.0415 15.50799834  1003"}}, "geometry": {"type": "Point", "coordinates": [123.46588304809424, -36.76486757738789]}}, {"type": "Feature", "properties": {"norad_id": 66909, "name": "SILVERSAT", "group": "last-30-days", "lat": -36.24684419304176, "lon": 124.24831728149948, "alt_km": 418.8128839106348, "timestamp": "2025-12-09T05:43:19.510940+00:00", "meta": {"OBJECT_NAME": "SILVERSAT", "OBJECT_ID": "1998-067XV", "EPOCH": "2025-12-08T17:33:40.093056", "MEAN_MOTION": 15.50878297, "ECCENTRICITY": 0.0005012, "INCLINATION": 51.6297, "RA_OF_ASC_NODE": 162.2763, "ARG_OF_PERICENTER": 204.4469, "MEAN_ANOMALY": 155.6283, "EPHEMERIS_TYPE": 0, "CLASSIFICATION_TYPE": "U", "NORAD_CAT_ID": 66909, "ELEMENT_SET_NO": 999, "REV_AT_EPOCH": 99, "BSTAR": 0.0013404, "MEAN_MOTION_DOT": 0.00079284, "MEAN_MOTION_DDOT": 0}, "tle": {"line1": "1 66909U 98067XV  25342.73171404  .00079284  00000+0  13404-2 0  9996", "line2": "2 66909  51.6297 162.2763 0005012 204.4469 155.6283 15.50878297   996"}}, "geometry": {"type": "Point", "coordinates": [124.24831728149948, -36.24684419304176]}}, {"type": "Feature", "properties": {"norad_id": 66910, "name": "1998-067XW", "group": "last-30-days", "lat": -32.097653046088446, "lon": 129.94826192829447, "alt_km": 419.5262043256398, "timestamp": "2025-12-09T05:43:19.510953+00:00", "meta": {"OBJECT_NAME": "1998-067XW", "OBJECT_ID": "1998-067XW", "EPOCH": "2025-12-08T19:04:55.224768", "MEAN_MOTION": 15.51091956, "ECCENTRICITY": 0.0005915, "INCLINATION": 51.6296, "RA_OF_ASC_NODE": 161.9498, "ARG_OF_PERICENTER": 189.2693, "MEAN_ANOMALY": 170.8188, "EPHEMERIS_TYPE": 0, "CLASSIFICATION_TYPE": "U", "NORAD_CAT_ID": 66910, "ELEMENT_SET_NO": 999, "REV_AT_EPOCH": 100, "BSTAR": 0.0012166, "MEAN_MOTION_DOT": 0.00072421, "MEAN_MOTION_DDOT": 0}, "tle": {"line1": "1 66910U 98067XW  25342.79508362  .00072421  00000+0  12166-2 0  9991", "line2": "2 66910  51.6296 161.9498 0005915 189.2693 170.8188 15.51091956  1005"}}, "geometry": {"type": "Point", "coordinates": [129.94826192829447, -32.097653046088446]}}, {"type": "Feature", "properties": {"norad_id": 66911, "name": "1998-067XX", "group": "last-30-days", "lat": -31.056037864883496, "lon": 131.24697829599603, "alt_km": 419.0309444989198, "timestamp": "2025-12-09T05:43:19.510963+00:00", "meta": {"OBJECT_NAME": "1998-067XX", "OBJECT_ID": "1998-067XX", "EPOCH": "2025-12-08T19:04:34.995936", "MEAN_MOTION": 15.51222448, "ECCENTRICITY": 0.0005755, "INCLINATION": 51.6294, "RA_OF_ASC_NODE": 161.9483, "ARG_OF_PERICENTER": 189.9158, "MEAN_ANOMALY": 170.1718, "EPHEMERIS_TYPE": 0, "CLASSIFICATION_TYPE": "U", "NORAD_CAT_ID": 66911, "ELEMENT_SET_NO": 999, "REV_AT_EPOCH": 99, "BSTAR": 0.0014185, "MEAN_MOTION_DOT": 0.00085043, "MEAN_MOTION_DDOT": 0}, "tle": {"line1": "1 66911U 98067XX  25342.79484949  .00085043  00000+0  14185-2 0  9993", "line2": "2 66911  51.6294 161.9483 0005755 189.9158 170.1718 15.51222448   994"}}, "geometry": {"type": "Point", "coordinates": [131.24697829599603, -31.056037864883496]}}, {"type": "Feature", "properties": {"norad_id": 66912, "name": "1998-067XY", "group": "last-30-days", "lat": -38.82633973318615, "lon": 120.1546181279183, "alt_km": 419.73266604272794, "timestamp": "2025-12-09T05:43:19.510973+00:00", "meta": {"OBJECT_NAME": "1998-067XY", "OBJECT_ID": "1998-067XY", "EPOCH": "2025-12-08T19:07:24.189600", "MEAN_MOTION": 15.50590013, "ECCENTRICITY": 0.0005041, "INCLINATION": 51.6301, "RA_OF_ASC_NODE": 161.961, "ARG_OF_PERICENTER": 202.8515, "MEAN_ANOMALY": 157.2251, "EPHEMERIS_TYPE": 0, "CLASSIFICATION_TYPE": "U", "NORAD_CAT_ID": 66912, "ELEMENT_SET_NO": 999, "REV_AT_EPOCH": 99, "BSTAR": 0.0010397, "MEAN_MOTION_DOT": 0.00060617, "MEAN_MOTION_DDOT": 0}, "tle": {"line1": "1 66912U 98067XY  25342.79680775  .00060617  00000+0  10397-2 0  9990", "line2": "2 66912  51.6301 161.9610 0005041 202.8515 157.2251 15.50590013   999"}}, "geometry": {"type": "Point", "coordinates": [120.1546181279183, -38.82633973318615]}}, {"type": "Feature", "properties": {"norad_id": 66913, "name": "2025-284A", "group": "last-30-days", "lat": 8.716018536407773, "lon": 135.68905913231552, "alt_km": 513.1969451516206, "timestamp": "2025-12-09T05:43:19.510983+00:00", "meta": {"OBJECT_NAME": "2025-284A", "OBJECT_ID": "2025-284A", "EPOCH": "2025-12-08T20:11:47.230368", "MEAN_MOTION": 15.18803631, "ECCENTRICITY": 0.0008026, "INCLINATION": 80.4052, "RA_OF_ASC_NODE": 134.7059, "ARG_OF_PERICENTER": 259.405, "MEAN_ANOMALY": 100.6273, "EPHEMERIS_TYPE": 0, "CLASSIFICATION_TYPE": "U", "NORAD_CAT_ID": 66913, "ELEMENT_SET_NO": 999, "REV_AT_EPOCH": 53, "BSTAR": 0.00066264, "MEAN_MOTION_DOT": 0.00013828, "MEAN_MOTION_DDOT": 0}, "tle": {"line1": "1 66913U 25284A   25342.84151887  .00013828  00000+0  66264-3 0  9992", "line2": "2 66913  80.4052 134.7059 0008026 259.4050 100.6273 15.18803631   539"}}, "geometry": {"type": "Point", "coordinates": [135.68905913231552, 8.716018536407773]}}, {"type": "Feature", "properties": {"norad_id": 66914, "name": "2025-284B", "group": "last-30-days", "lat": 14.533667239808164, "lon": 136.71314709961496, "alt_km": 512.5264828123118, "timestamp": "2025-12-09T05:43:19.510994+00:00", "meta": {"OBJECT_NAME": "2025-284B", "OBJECT_ID": "2025-284B", "EPOCH": "2025-12-07T23:38:29.178816", "MEAN_MOTION": 15.20093076, "ECCENTRICITY": 0.0012859, "INCLINATION": 80.4047, "RA_OF_ASC_NODE": 135.7909, "ARG_OF_PERICENTER": 245.1406, "MEAN_ANOMALY": 114.8485, "EPHEMERIS_TYPE": 0, "CLASSIFICATION_TYPE": "U", "NORAD_CAT_ID": 66914, "ELEMENT_SET_NO": 999, "REV_AT_EPOCH": 40, "BSTAR": 0.00060156, "MEAN_MOTION_DOT": 0.00013048, "MEAN_MOTION_DDOT": 0}, "tle": {"line1": "1 66914U 25284B   25341.98505994  .00013048  00000+0  60156-3 0  9997", "line2": "2 66914  80.4047 135.7909 0012859 245.1406 114.8485 15.20093076   400"}}, "geometry": {"type": "Point", "coordinates": [136.71314709961496, 14.533667239808164]}}, {"type": "Feature", "properties": {"norad_id": 66915, "name": "HULIANWANG DIGUI 14A", "group": "last-30-days", "lat": 47.82787224404528, "lon": -116.37054919876122, "alt_km": 873.9509032250517, "timestamp": "2025-12-09T05:43:19.511008+00:00", "meta": {"OBJECT_NAME": "HULIANWANG DIGUI 14A", "OBJECT_ID": "2025-285A", "EPOCH": "2025-12-08T20:41:37.709664", "MEAN_MOTION": 14.05465762, "ECCENTRICITY": 0.0008095, "INCLINATION": 50.0042, "RA_OF_ASC_NODE": 133.0995, "ARG_OF_PERICENTER": 269.5981, "MEAN_ANOMALY": 90.3997, "EPHEMERIS_TYPE": 0, "CLASSIFICATION_TYPE": "U", "NORAD_CAT_ID": 66915, "ELEMENT_SET_NO": 999, "REV_AT_EPOCH": 36, "BSTAR": 1.5281e-05, "MEAN_MOTION_DOT": -1.27e-06, "MEAN_MOTION_DDOT": 0}, "tle": {"line1": "1 66915U 25285A   25342.86224201 -.00000127  00000+0  15281-4 0  9991", "line2": "2 66915  50.0042 133.0995 0008095 269.5981  90.3997 14.05465762   368"}}, "geometry": {"type": "Point", "coordinates": [-116.37054919876122, 47.82787224404528]}}, {"type": "Feature", "properties": {"norad_id": 66916, "name": "HULIANWANG DIGUI 14B", "group": "last-30-days", "lat": 47.67650844692019, "lon": -115.6285002870904, "alt_km": 872.8597064264177, "timestamp": "2025-12-09T05:43:19.511019+00:00", "meta": {"OBJECT_NAME": "HULIANWANG DIGUI 14B", "OBJECT_ID": "2025-285B", "EPOCH": "2025-12-08T20:41:30.051168", "MEAN_MOTION": 14.05512167, "ECCENTRICITY": 0.000695, "INCLINATION": 50.0053, "RA_OF_ASC_NODE": 133.1001, "ARG_OF_PERICENTER": 264.3165, "MEAN_ANOMALY": 95.6948, "EPHEMERIS_TYPE": 0, "CLASSIFICATION_TYPE": "U", "NORAD_CAT_ID": 66916, "ELEMENT_SET_NO": 999, "REV_AT_EPOCH": 36, "BSTAR": 1.5124e-05, "MEAN_MOTION_DOT": -1.27e-06, "MEAN_MOTION_DDOT": 0}, "tle": {"line1": "1 66916U 25285B   25342.86215337 -.00000127  00000+0  15124-4 0  9998", "line2": "2 66916  50.0053 133.1001 0006950 264.3165  95.6948 14.05512167   361"}}, "geometry": {"type": "Point", "coordinates": [-115.6285002870904, 47.67650844692019]}}]}